ONEWEB-0546             
1 56048U 23043C   26188.08680139  .00000058  00000+0  11890-3 0  9999
2 56048  87.9081 224.8218 0002501  81.6421 278.4994 13.16593455161581
ONEWEB-0547             
1 56049U 23043D   26188.15627741  .00000077  00000+0  15474-3 0  9991
2 56049  87.9243 240.0011 0002165 101.3541 258.7836 13.21827064160860
ONEWEB-0548             
1 56050U 23043E   26188.03533993  .00000059  00000+0  12109-3 0  9997
2 56050  87.9081 224.8276 0001673  87.8937 272.2385 13.16594406161579
ONEWEB-0549             
1 56051U 23043F   26188.15039456  .00000031  00000+0  43174-4 0  9993
2 56051  87.9237 240.0079 0002451 101.8563 258.2846 13.21827152160861
ONEWEB-0550             
1 56052U 23043G   26188.13694720  .00000005  00000+0 -19854-4 0  9993
2 56052  87.9240 240.0084 0001860  96.9362 263.1983 13.21826875160864
ONEWEB-0551             
1 56053U 23043H   26188.15830944 -.00000013  00000+0 -68003-4 0  9996
2 56053  87.8987 255.2477 0002298 105.3084 254.8300 13.15546827159023
ONEWEB-0552             
1 56054U 23043J   26187.67770348 -.00000014  00000+0 -65518-4 0  9993
2 56054  87.9237 240.1046 0001986 102.3847 257.7509 13.21825627160801
ONEWEB-0553             
1 56055U 23043K   26188.09313397  .00000104  00000+0  23818-3 0  9992
2 56055  87.9081 224.8206 0002173  84.7545 275.3834 13.16593293161592
ONEWEB-0554             
1 56056U 23043L   26188.08047178  .00000052  00000+0  10237-3 0  9996
2 56056  87.9077 224.8319 0001599  88.0640 272.0674 13.16593597161578
ONEWEB-0555             
1 56057U 23043M   26187.58648242  .00000002  00000+0 -27912-4 0  9995
2 56057  87.9082 224.9190 0002410  82.0159 278.1245 13.16593600161515
ONEWEB-0557             
1 56058U 23043N   26187.60073245 -.00000039  00000+0 -13623-3 0  9998
2 56058  87.9082 224.9260 0001785  56.9208 303.2094 13.16593653161513
ONEWEB-0558             
1 56059U 23043P   26187.67097946 -.00000074  00000+0 -21025-3 0  9994
2 56059  87.9239 240.1014 0002404 100.0360 260.1045 13.21825639160811
ONEWEB-0559             
1 56060U 23043Q   26188.11337301 -.00000188  00000+0 -48661-3 0  9999
2 56060  87.9242 240.0089 0002173 102.9406 257.1970 13.21825019160885
ONEWEB-0566             
1 56061U 23043R   26188.10664506 -.00000199  00000+0 -51432-3 0  9991
2 56061  87.9241 240.0081 0002207 105.6019 254.5359 13.21824893160864
ONEWEB-0568             
1 56062U 23043S   26188.07414284  .00000030  00000+0  43564-4 0  9994
2 56062  87.9079 224.8212 0002225  88.2423 271.8962 13.16595085161590
ONEWEB-0574             
1 56063U 23043T   26188.09994124  .00000077  00000+0  15556-3 0  9993
2 56063  87.9245 240.0140 0001945  92.9190 267.2167 13.21825521160904
ONEWEB-0575             
1 56064U 23043U   26188.06780260  .00000025  00000+0  30606-4 0  9992
2 56064  87.9080 224.8188 0001886  82.9865 277.1481 13.16594606161581
ONEWEB-0576             
1 56065U 23043V   26187.59281544 -.00000051  00000+0 -16685-3 0  9992
2 56065  87.9083 224.9217 0001979  88.8369 271.2989 13.16595083161517
ONEWEB-0577             
1 56066U 23043W   26187.59915821 -.00000016  00000+0 -75667-4 0  9992
2 56066  87.9082 224.9179 0001569  75.3658 284.7646 13.16595336161544
ONEWEB-0578             
1 56067U 23043X   26188.08648477  .00000105  00000+0  22280-3 0  9997
2 56067  87.9244 240.0132 0002243  89.2550 270.8841 13.21826034160863
ONEWEB-0579             
1 56068U 23043Y   26188.07805757  .00000026  00000+0  31361-4 0  9996
2 56068  87.9247 240.0125 0001987 104.2466 255.8888 13.21827671160870
ONEWEB-0581             
1 56069U 23043Z   26187.60548794 -.00000039  00000+0 -13498-3 0  9996
2 56069  87.9077 224.9278 0001622  83.8387 276.2928 13.16594788161510
ONEWEB-0609             
1 56070U 23043AA  26187.95627916  .00000081  00000+0  18218-3 0  9990
2 56070  87.8991 255.2727 0002136  98.3817 261.7555 13.15546965159034
ONEWEB-0613             
1 56071U 23043AB  26187.72573682  .00000090  00000+0  20461-3 0  9999
2 56071  87.8991 255.3310 0002106 106.1193 254.0169 13.15547535159003
ONEWEB-0630             
1 56072U 23043AC  26188.17733125  .00000175  00000+0  42991-3 0  9996
2 56072  87.8996 255.2138 0002082 105.5451 254.5909 13.15549585159058
ONEWEB-0632             
1 56073U 23043AD  26187.71623521  .00000121  00000+0  28681-3 0  9995
2 56073  87.8991 255.3229 0001877  96.8812 263.2532 13.15548032158997
ONEWEB-0633             
1 56074U 23043AE  26188.16624311  .00000025  00000+0  31798-4 0  9991
2 56074  87.8996 255.2105 0002287 107.6993 252.4387 13.15547828159038
ONEWEB-0634             
1 56075U 23043AF  26188.15197946 -.00000015  00000+0 -73182-4 0  9994
2 56075  87.8990 255.2518 0002338  95.0224 265.1173 13.15547670159023
ONEWEB-0635             
1 56076U 23043AG  26187.69087882 -.00000077  00000+0 -23902-3 0  9992
2 56076  87.8998 255.3079 0001820  95.2970 264.8368 13.15548006158991
ONEWEB-0636             
1 56077U 23043AH  26188.13929233 -.00000080  00000+0 -24680-3 0  9996
2 56077  87.8999 255.2244 0001892  95.2742 264.8605 13.15547371159036
