OBJECT_NAME,OBJECT_ID,EPOCH,MEAN_MOTION,ECCENTRICITY,INCLINATION,RA_OF_ASC_NODE,ARG_OF_PERICENTER,MEAN_ANOMALY,EPHEMERIS_TYPE,CLASSIFICATION_TYPE,NORAD_CAT_ID,ELEMENT_SET_NO,REV_AT_EPOCH,BSTAR,MEAN_MOTION_DOT,MEAN_MOTION_DDOT
ONEWEB-0546,2023-043C,2026-07-07T02:04:59.640096,13.16593455,.0002501,87.9081,224.8218,81.6421,278.4994,0,U,56048,999,16158,.1189E-3,.58E-6,0
ONEWEB-0547,2023-043D,2026-07-07T03:45:02.368224,13.21827064,.0002165,87.9243,240.0011,101.3541,258.7836,0,U,56049,999,16086,.15474E-3,.77E-6,0
ONEWEB-0548,2023-043E,2026-07-07T00:50:53.369952,13.16594406,.0001673,87.9081,224.8276,87.8937,272.2385,0,U,56050,999,16157,.12109E-3,.59E-6,0
ONEWEB-0549,2023-043F,2026-07-07T03:36:34.089984,13.21827152,.0002451,87.9237,240.0079,101.8563,258.2846,0,U,56051,999,16086,.43174E-4,.31E-6,0
ONEWEB-0550,2023-043G,2026-07-07T03:17:12.238080,13.21826875,.000186,87.9240,240.0084,96.9362,263.1983,0,U,56052,999,16086,-.19854E-4,.5E-7,0
ONEWEB-0551,2023-043H,2026-07-07T03:47:57.935616,13.15546827,.0002298,87.8987,255.2477,105.3084,254.8300,0,U,56053,999,15902,-.68003E-4,-.13E-6,0
ONEWEB-0552,2023-043J,2026-07-06T16:15:53.580672,13.21825627,.0001986,87.9237,240.1046,102.3847,257.7509,0,U,56054,999,16080,-.65518E-4,-.14E-6,0
ONEWEB-0553,2023-043K,2026-07-07T02:14:06.775008,13.16593293,.0002173,87.9081,224.8206,84.7545,275.3834,0,U,56055,999,16159,.23818E-3,.104E-5,0
ONEWEB-0554,2023-043L,2026-07-07T01:55:52.761792,13.16593597,.0001599,87.9077,224.8319,88.0640,272.0674,0,U,56056,999,16157,.10237E-3,.52E-6,0
ONEWEB-0555,2023-043M,2026-07-06T14:04:32.081088,13.16593600,.000241,87.9082,224.9190,82.0159,278.1245,0,U,56057,999,16151,-.27912E-4,.2E-7,0
ONEWEB-0557,2023-043N,2026-07-06T14:25:03.283680,13.16593653,.0001785,87.9082,224.9260,56.9208,303.2094,0,U,56058,999,16151,-.13623E-3,-.39E-6,0
ONEWEB-0558,2023-043P,2026-07-06T16:06:12.625344,13.21825639,.0002404,87.9239,240.1014,100.0360,260.1045,0,U,56059,999,16081,-.21025E-3,-.74E-6,0
ONEWEB-0559,2023-043Q,2026-07-07T02:43:15.428064,13.21825019,.0002173,87.9242,240.0089,102.9406,257.1970,0,U,56060,999,16088,-.48661E-3,-.188E-5,0
ONEWEB-0566,2023-043R,2026-07-07T02:33:34.133184,13.21824893,.0002207,87.9241,240.0081,105.6019,254.5359,0,U,56061,999,16086,-.51432E-3,-.199E-5,0
ONEWEB-0568,2023-043S,2026-07-07T01:46:45.941376,13.16595085,.0002225,87.9079,224.8212,88.2423,271.8962,0,U,56062,999,16159,.43564E-4,.3E-6,0
ONEWEB-0574,2023-043T,2026-07-07T02:23:54.923136,13.21825521,.0001945,87.9245,240.0140,92.9190,267.2167,0,U,56063,999,16090,.15556E-3,.77E-6,0
ONEWEB-0575,2023-043U,2026-07-07T01:37:38.144640,13.16594606,.0001886,87.9080,224.8188,82.9865,277.1481,0,U,56064,999,16158,.30606E-4,.25E-6,0
ONEWEB-0576,2023-043V,2026-07-06T14:13:39.254016,13.16595083,.0001979,87.9083,224.9217,88.8369,271.2989,0,U,56065,999,16151,-.16685E-3,-.51E-6,0
ONEWEB-0577,2023-043W,2026-07-06T14:22:47.269344,13.16595336,.0001569,87.9082,224.9179,75.3658,284.7646,0,U,56066,999,16154,-.75667E-4,-.16E-6,0
ONEWEB-0578,2023-043X,2026-07-07T02:04:32.284128,13.21826034,.0002243,87.9244,240.0132,89.2550,270.8841,0,U,56067,999,16086,.2228E-3,.105E-5,0
ONEWEB-0579,2023-043Y,2026-07-07T01:52:24.174048,13.21827671,.0001987,87.9247,240.0125,104.2466,255.8888,0,U,56068,999,16087,.31361E-4,.26E-6,0
ONEWEB-0581,2023-043Z,2026-07-06T14:31:54.158016,13.16594788,.0001622,87.9077,224.9278,83.8387,276.2928,0,U,56069,999,16151,-.13498E-3,-.39E-6,0
ONEWEB-0609,2023-043AA,2026-07-06T22:57:02.519424,13.15546965,.0002136,87.8991,255.2727,98.3817,261.7555,0,U,56070,999,15903,.18218E-3,.81E-6,0
ONEWEB-0613,2023-043AB,2026-07-06T17:25:03.661248,13.15547535,.0002106,87.8991,255.3310,106.1193,254.0169,0,U,56071,999,15900,.20461E-3,.9E-6,0
ONEWEB-0630,2023-043AC,2026-07-07T04:15:21.420000,13.15549585,.0002082,87.8996,255.2138,105.5451,254.5909,0,U,56072,999,15905,.42991E-3,.175E-5,0
ONEWEB-0632,2023-043AD,2026-07-06T17:11:22.722144,13.15548032,.0001877,87.8991,255.3229,96.8812,263.2532,0,U,56073,999,15899,.28681E-3,.121E-5,0
ONEWEB-0633,2023-043AE,2026-07-07T03:59:23.404704,13.15547828,.0002287,87.8996,255.2105,107.6993,252.4387,0,U,56074,999,15903,.31798E-4,.25E-6,0
ONEWEB-0634,2023-043AF,2026-07-07T03:38:51.025344,13.15547670,.0002338,87.8990,255.2518,95.0224,265.1173,0,U,56075,999,15902,-.73182E-4,-.15E-6,0
ONEWEB-0635,2023-043AG,2026-07-06T16:34:51.930048,13.15548006,.000182,87.8998,255.3079,95.2970,264.8368,0,U,56076,999,15899,-.23902E-3,-.77E-6,0
ONEWEB-0636,2023-043AH,2026-07-07T03:20:34.857312,13.15547371,.0001892,87.8999,255.2244,95.2742,264.8605,0,U,56077,999,15903,-.2468E-3,-.8E-6,0
